CSS (TIANHE)            
1 48274U 21035A   24102.79555884  .00019149  00000+0  19108-3 0  9991
2 48274  41.4670 128.7419 0008089  12.3013 347.8023 15.65143637168706
